[{"OBJECT_NAME":"STARLINK-34853","OBJECT_ID":"2025-224L","EPOCH":"2026-03-09T05:21:34.009920","MEAN_MOTION":15.30190301,"ECCENTRICITY":0.00010648,"INCLINATION":53.161,"RA_OF_ASC_NODE":13.4669,"ARG_OF_PERICENTER":90.7597,"MEAN_ANOMALY":269.3526,"EPHEMERIS_TYPE":0,"CLASSIFICATION_TYPE":"U","NORAD_CAT_ID":65892,"ELEMENT_SET_NO":999,"REV_AT_EPOCH":2473,"BSTAR":0.00084273139,"MEAN_MOTION_DOT":0.00024675,"MEAN_MOTION_DDOT":0},{"OBJECT_NAME":"CZ-4B DEB","OBJECT_ID":"1999-057DZ","EPOCH":"2026-03-09T09:52:12.897696","MEAN_MOTION":15.33653758,"ECCENTRICITY":0.00127381,"INCLINATION":98.4932,"RA_OF_ASC_NODE":238.6814,"ARG_OF_PERICENTER":254.7139,"MEAN_ANOMALY":105.2693,"EPHEMERIS_TYPE":0,"CLASSIFICATION_TYPE":"U","NORAD_CAT_ID":26235,"ELEMENT_SET_NO":999,"REV_AT_EPOCH":38912,"BSTAR":0.0023807093,"MEAN_MOTION_DOT":0.00078286,"MEAN_MOTION_DDOT":0}]
